OBJECT_NAME,OBJECT_ID,EPOCH,MEAN_MOTION,ECCENTRICITY,INCLINATION,RA_OF_ASC_NODE,ARG_OF_PERICENTER,MEAN_ANOMALY,EPHEMERIS_TYPE,CLASSIFICATION_TYPE,NORAD_CAT_ID,ELEMENT_SET_NO,REV_AT_EPOCH,BSTAR,MEAN_MOTION_DOT,MEAN_MOTION_DDOT
STARLINK-11542 [DTC],2025-031H,2026-07-06T18:28:26.576256,15.70944275,.0001782,43.0007,3.4115,272.9637,87.1026,0,U,62988,999,8144,.80576E-3,.104713E-2,0
STARLINK-11573 [DTC],2025-031J,2026-07-06T14:39:38.672064,15.70903438,.0001678,43.0000,4.8168,247.4761,112.5929,0,U,62989,999,8141,.11254E-2,.146927E-2,0
STARLINK-11572 [DTC],2025-031K,2026-07-05T21:15:35.414784,15.70826975,.00016625,43.0011,8.8275,283.7879,76.2804,0,U,62990,999,8133,.15351414E-2,.201264E-2,0
STARLINK-11583 [DTC],2025-031L,2026-07-06T14:47:17.905344,15.70870452,.0005286,43.0005,4.8601,291.8768,68.1538,0,U,62991,999,8145,.12473E-2,.16307E-2,0
STARLINK-11570 [DTC],2025-031M,2026-07-06T14:54:56.670336,15.70888571,.0002213,43.0009,4.9026,280.4859,79.5759,0,U,62992,999,8143,.95859E-3,.124673E-2,0
STARLINK-11576 [DTC],2025-031N,2026-07-06T13:00:26.794656,15.70925769,.0001767,43.0007,5.1561,272.5071,87.5595,0,U,62993,999,8142,.10357E-2,.135119E-2,0
STARLINK-32899,2025-031P,2026-07-06T17:04:56.781120,15.27548873,.000145,42.9991,191.5481,267.1494,92.9192,0,U,62994,999,7929,.63664E-3,.17281E-3,0
STARLINK-32819,2025-031Q,2026-07-06T10:00:11.919168,15.27548920,.00015337,43.0011,192.7726,274.5429,85.5248,0,U,62995,999,7925,.74810498E-3,.20362E-3,0
STARLINK-32703,2025-031R,2026-07-06T16:57:32.287680,15.27550299,.0001679,43.0007,191.5097,275.8190,84.2471,0,U,62996,999,7929,.15842E-4,.173E-5,0
STARLINK-32881,2025-031S,2026-07-06T17:36:11.149632,15.27552065,.0001616,43.0030,190.8472,278.5315,81.5353,0,U,62997,999,7930,.46381E-3,.12512E-3,0
STARLINK-32898,2025-031T,2026-07-06T16:48:17.005248,15.27556352,.0002617,43.0006,191.4607,263.7457,96.3096,0,U,62998,999,7929,.35128E-3,.941E-4,0
STARLINK-32658,2025-031U,2026-07-06T17:41:44.395296,15.27548023,.0001198,43.0009,190.8762,254.1425,105.9294,0,U,62999,999,7930,.58664E-3,.159E-3,0
STARLINK-32673,2025-031V,2026-07-06T08:42:42.075072,15.27547389,.00009891,42.9996,193.2253,313.2990,46.7779,0,U,63000,999,7924,.79089045E-3,.21543E-3,0
STARLINK-32437,2025-031W,2026-07-06T17:10:29.263872,15.27559811,.0002165,43.0016,191.5762,263.7865,96.2740,0,U,63001,999,7929,.31601E-3,.8439E-4,0
STARLINK-11448 [DTC],2025-032A,2026-07-06T10:28:19.704288,15.71030773,.00020315,43.0004,199.2120,294.5678,65.4978,0,U,63005,999,8090,.19500827E-2,.25983E-2,0
STARLINK-11553 [DTC],2025-032B,2026-07-06T01:03:53.904096,15.70863512,.00010654,42.9997,202.3219,271.4705,88.6040,0,U,63006,999,8082,.13259575E-2,.173456E-2,0
STARLINK-11526 [DTC],2025-032C,2026-07-06T01:11:21.384384,15.70852145,.00022055,43.0024,201.4687,263.3839,96.6777,0,U,63007,999,8083,.13458731E-2,.176046E-2,0
STARLINK-11405 [DTC],2025-032D,2026-07-06T20:00:01.999008,15.70964356,.0001504,43.0008,197.4284,273.1883,289.0418,0,U,63008,999,602,-.16982E-2,-.213957E-2,0
STARLINK-11586 [DTC],2025-032E,2026-07-06T09:35:01.338720,15.71006523,.00023081,42.9991,199.8082,263.0882,96.9723,0,U,63009,999,8088,.19639594E-2,.261471E-2,0
STARLINK-11574 [DTC],2025-032F,2026-07-06T17:28:05.640384,15.70896260,.0001115,43.0009,197.9762,356.4418,3.6442,0,U,63010,999,8093,.12133E-2,.158618E-2,0
STARLINK-11580 [DTC],2025-032G,2026-07-06T12:15:11.672928,15.70967989,.0003354,43.0005,198.9121,246.9596,113.0918,0,U,63011,999,8075,.11977E-2,.15704E-2,0
STARLINK-11449 [DTC],2025-032H,2026-07-06T01:49:33.008736,15.70916662,.0002688,43.0006,201.6794,288.9600,71.0976,0,U,63012,999,8083,.14310426E-2,.188003E-2,0
STARLINK-11577 [DTC],2025-032J,2026-07-06T17:20:27.766176,15.70973933,.0000582,43.0007,197.9317,299.2611,60.8198,0,U,63013,999,8093,.95576E-3,.124745E-2,0
STARLINK-11578 [DTC],2025-032K,2026-07-06T17:43:23.729376,15.70910547,.0001135,42.9997,198.0600,292.5289,67.5458,0,U,63014,999,8088,.11059E-2,.144373E-2,0
STARLINK-11541 [DTC],2025-032L,2026-07-06T12:07:33.706272,15.71045364,.000097,42.9996,198.8658,289.9440,70.1323,0,U,63015,999,8091,.17949E-2,.238652E-2,0
STARLINK-11545 [DTC],2025-032M,2026-07-06T01:41:56.264640,15.70877663,.00015645,43.0003,201.6357,265.8907,94.1782,0,U,63016,999,8084,.16639526E-2,.219129E-2,0
STARLINK-11400 [DTC],2025-032N,2026-07-06T11:29:28.885056,15.70960770,.0003308,43.0031,199.5488,257.6995,102.3502,0,U,63017,999,8089,.11268E-2,.147494E-2,0
STARLINK-32870,2025-032P,2026-07-05T22:30:14.962752,15.27508708,.00018728,43.0029,28.3194,274.2833,85.7805,0,U,63018,999,7870,.56918289E-3,.15399E-3,0
STARLINK-32872,2025-032Q,2026-07-05T19:53:23.138592,15.27530190,.00013808,43.0031,29.2289,289.1532,70.9170,0,U,63019,999,7868,.67431262E-3,.18311E-3,0
STARLINK-32677,2025-032R,2026-07-05T14:44:59.457984,15.27546225,.00016034,43.0051,30.1941,220.5629,139.5103,0,U,63020,999,7864,.89894885E-3,.24532E-3,0
