STARLINK-11542 [DTC]    
1 62988U 25031H   26187.76975204  .00104713  00000+0  80576-3 0  9992
2 62988  43.0007   3.4115 0001782 272.9637  87.1026 15.70944275 81442
STARLINK-11573 [DTC]    
1 62989U 25031J   26187.61086426  .00146927  00000+0  11254-2 0  9995
2 62989  43.0000   4.8168 0001678 247.4761 112.5929 15.70903438 81416
STARLINK-11572 [DTC]    
1 62990U 25031K   26186.88582656  .00201264  00000+0  15351-2 0  9999
2 62990  43.0011   8.8275 0001662 283.7879  76.2804 15.70826975 81338
STARLINK-11583 [DTC]    
1 62991U 25031L   26187.61617946  .00163070  00000+0  12473-2 0  9997
2 62991  43.0005   4.8601 0005286 291.8768  68.1538 15.70870452 81450
STARLINK-11570 [DTC]    
1 62992U 25031M   26187.62148924  .00124673  00000+0  95859-3 0  9990
2 62992  43.0009   4.9026 0002213 280.4859  79.5759 15.70888571 81439
STARLINK-11576 [DTC]    
1 62993U 25031N   26187.54197679  .00135119  00000+0  10357-2 0  9999
2 62993  43.0007   5.1561 0001767 272.5071  87.5595 15.70925769 81423
STARLINK-32899          
1 62994U 25031P   26187.71176830  .00017281  00000+0  63664-3 0  9994
2 62994  42.9991 191.5481 0001450 267.1494  92.9192 15.27548873 79297
STARLINK-32819          
1 62995U 25031Q   26187.41680462  .00020362  00000+0  74810-3 0  9992
2 62995  43.0011 192.7726 0001533 274.5429  85.5248 15.27548920 79259
STARLINK-32703          
1 62996U 25031R   26187.70662370  .00000173  00000+0  15842-4 0  9992
2 62996  43.0007 191.5097 0001679 275.8190  84.2471 15.27550299 79293
STARLINK-32881          
1 62997U 25031S   26187.73346238  .00012512  00000+0  46381-3 0  9999
2 62997  43.0030 190.8472 0001616 278.5315  81.5353 15.27552065 79303
STARLINK-32898          
1 62998U 25031T   26187.70019682  .00009410  00000+0  35128-3 0  9997
2 62998  43.0006 191.4607 0002617 263.7457  96.3096 15.27556352 79298
STARLINK-32658          
1 62999U 25031U   26187.73731939  .00015900  00000+0  58664-3 0  9998
2 62999  43.0009 190.8762 0001198 254.1425 105.9294 15.27548023 79304
STARLINK-32673          
1 63000U 25031V   26187.36298698  .00021543  00000+0  79089-3 0  9995
2 63000  42.9996 193.2253 0000989 313.2990  46.7779 15.27547389 79241
STARLINK-32437          
1 63001U 25031W   26187.71561648  .00008439  00000+0  31601-3 0  9990
2 63001  43.0016 191.5762 0002165 263.7865  96.2740 15.27559811 79297
STARLINK-11448 [DTC]    
1 63005U 25032A   26187.43633917  .00259830  00000+0  19501-2 0  9990
2 63005  43.0004 199.2120 0002031 294.5678  65.4978 15.71030773 80908
STARLINK-11553 [DTC]    
1 63006U 25032B   26187.04437389  .00173456  00000+0  13260-2 0  9998
2 63006  42.9997 202.3219 0001065 271.4705  88.6040 15.70863512 80826
STARLINK-11526 [DTC]    
1 63007U 25032C   26187.04955306  .00176046  00000+0  13459-2 0  9991
2 63007  43.0024 201.4687 0002205 263.3839  96.6777 15.70852145 80831
STARLINK-11405 [DTC]    
1 63008U 25032D   26187.83335647 -.00213957  00000+0 -16982-2 0  9998
2 63008  43.0008 197.4284 0001504 273.1883 289.0418 15.70964356  6027
STARLINK-11586 [DTC]    
1 63009U 25032E   26187.39932105  .00261471  00000+0  19640-2 0  9998
2 63009  42.9991 199.8082 0002308 263.0882  96.9723 15.71006523 80883
STARLINK-11574 [DTC]    
1 63010U 25032F   26187.72784306  .00158618  00000+0  12133-2 0  9993
2 63010  43.0009 197.9762 0001115 356.4418   3.6442 15.70896260 80931
STARLINK-11580 [DTC]    
1 63011U 25032G   26187.51055177  .00157040  00000+0  11977-2 0  9991
2 63011  43.0005 198.9121 0003354 246.9596 113.0918 15.70967989 80756
STARLINK-11449 [DTC]    
1 63012U 25032H   26187.07607649  .00188003  00000+0  14310-2 0  9997
2 63012  43.0006 201.6794 0002688 288.9600  71.0976 15.70916662 80835
STARLINK-11577 [DTC]    
1 63013U 25032J   26187.72254359  .00124745  00000+0  95576-3 0  9993
2 63013  43.0007 197.9317 0000582 299.2611  60.8198 15.70973933 80930
STARLINK-11578 [DTC]    
1 63014U 25032K   26187.73846909  .00144373  00000+0  11059-2 0  9995
2 63014  42.9997 198.0600 0001135 292.5289  67.5458 15.70910547 80885
STARLINK-11541 [DTC]    
1 63015U 25032L   26187.50525123  .00238652  00000+0  17949-2 0  9991
2 63015  42.9996 198.8658 0000970 289.9440  70.1323 15.71045364 80913
STARLINK-11545 [DTC]    
1 63016U 25032M   26187.07079010  .00219129  00000+0  16640-2 0  9998
2 63016  43.0003 201.6357 0001564 265.8907  94.1782 15.70877663 80846
STARLINK-11400 [DTC]    
1 63017U 25032N   26187.47880654  .00147494  00000+0  11268-2 0  9993
2 63017  43.0031 199.5488 0003308 257.6995 102.3502 15.70960770 80891
STARLINK-32870          
1 63018U 25032P   26186.93767318  .00015399  00000+0  56918-3 0  9995
2 63018  43.0029  28.3194 0001872 274.2833  85.7805 15.27508708 78700
STARLINK-32872          
1 63019U 25032Q   26186.82874003  .00018311  00000+0  67431-3 0  9993
2 63019  43.0031  29.2289 0001380 289.1532  70.9170 15.27530190 78682
STARLINK-32677          
1 63020U 25032R   26186.61457706  .00024532  00000+0  89895-3 0  9999
2 63020  43.0051  30.1941 0001603 220.5629 139.5103 15.27546225 78646
